[{"OBJECT_NAME":"STARLINK-32598","OBJECT_ID":"2024-216Q","EPOCH":"2026-03-23T13:37:32.145024","MEAN_MOTION":15.27616046,"ECCENTRICITY":8.08e-5,"INCLINATION":43.0014,"RA_OF_ASC_NODE":177.47,"ARG_OF_PERICENTER":222.0104,"MEAN_ANOMALY":138.0685,"EPHEMERIS_TYPE":0,"CLASSIFICATION_TYPE":"U","NORAD_CAT_ID":62046,"ELEMENT_SET_NO":999,"REV_AT_EPOCH":7600,"BSTAR":0.00097043,"MEAN_MOTION_DOT":0.00026567,"MEAN_MOTION_DDOT":0},{"OBJECT_NAME":"STARLINK-32630","OBJECT_ID":"2024-216R","EPOCH":"2026-03-23T13:30:48.326112","MEAN_MOTION":15.27683983,"ECCENTRICITY":7.42e-5,"INCLINATION":42.9971,"RA_OF_ASC_NODE":185.2128,"ARG_OF_PERICENTER":295.5392,"MEAN_ANOMALY":64.5383,"EPHEMERIS_TYPE":0,"CLASSIFICATION_TYPE":"U","NORAD_CAT_ID":62047,"ELEMENT_SET_NO":999,"REV_AT_EPOCH":7591,"BSTAR":0.0015939,"MEAN_MOTION_DOT":0.00044,"MEAN_MOTION_DDOT":0},{"OBJECT_NAME":"STARLINK-32599","OBJECT_ID":"2024-216S","EPOCH":"2026-03-23T13:36:21.535488","MEAN_MOTION":15.27607676,"ECCENTRICITY":0.0001362,"INCLINATION":43.0011,"RA_OF_ASC_NODE":185.2429,"ARG_OF_PERICENTER":238.8547,"MEAN_ANOMALY":121.2171,"EPHEMERIS_TYPE":0,"CLASSIFICATION_TYPE":"U","NORAD_CAT_ID":62048,"ELEMENT_SET_NO":999,"REV_AT_EPOCH":7591,"BSTAR":0.00074466,"MEAN_MOTION_DOT":0.00020303,"MEAN_MOTION_DDOT":0},{"OBJECT_NAME":"STARLINK-32473","OBJECT_ID":"2024-216T","EPOCH":"2026-03-22T13:30:15.761088","MEAN_MOTION":15.27547627,"ECCENTRICITY":3.337e-5,"INCLINATION":43.0017,"RA_OF_ASC_NODE":183.6855,"ARG_OF_PERICENTER":194.5925,"MEAN_ANOMALY":165.4917,"EPHEMERIS_TYPE":0,"CLASSIFICATION_TYPE":"U","NORAD_CAT_ID":62049,"ELEMENT_SET_NO":999,"REV_AT_EPOCH":7468,"BSTAR":0.00084721716,"MEAN_MOTION_DOT":0.00023101,"MEAN_MOTION_DDOT":0},{"OBJECT_NAME":"STARLINK-32492","OBJECT_ID":"2024-216U","EPOCH":"2026-03-23T00:26:07.384128","MEAN_MOTION":15.27594888,"ECCENTRICITY":8.641e-5,"INCLINATION":43.0015,"RA_OF_ASC_NODE":188.0035,"ARG_OF_PERICENTER":258.7723,"MEAN_ANOMALY":101.3032,"EPHEMERIS_TYPE":0,"CLASSIFICATION_TYPE":"U","NORAD_CAT_ID":62050,"ELEMENT_SET_NO":999,"REV_AT_EPOCH":7583,"BSTAR":0.0012568666,"MEAN_MOTION_DOT":0.00034502,"MEAN_MOTION_DDOT":0},{"OBJECT_NAME":"STARLINK-32496","OBJECT_ID":"2024-216V","EPOCH":"2026-03-22T23:43:45.388992","MEAN_MOTION":15.27580441,"ECCENTRICITY":0.00013923,"INCLINATION":43.0009,"RA_OF_ASC_NODE":188.6422,"ARG_OF_PERICENTER":259.9687,"MEAN_ANOMALY":100.1007,"EPHEMERIS_TYPE":0,"CLASSIFICATION_TYPE":"U","NORAD_CAT_ID":62051,"ELEMENT_SET_NO":999,"REV_AT_EPOCH":7582,"BSTAR":0.0011666979,"MEAN_MOTION_DOT":0.00031983,"MEAN_MOTION_DDOT":0},{"OBJECT_NAME":"STARLINK-32495","OBJECT_ID":"2024-216W","EPOCH":"2026-03-23T00:00:11.414304","MEAN_MOTION":15.27585379,"ECCENTRICITY":0.00017915,"INCLINATION":42.9998,"RA_OF_ASC_NODE":187.8718,"ARG_OF_PERICENTER":271.9147,"MEAN_ANOMALY":88.15,"EPHEMERIS_TYPE":0,"CLASSIFICATION_TYPE":"U","NORAD_CAT_ID":62052,"ELEMENT_SET_NO":999,"REV_AT_EPOCH":7583,"BSTAR":0.001453529,"MEAN_MOTION_DOT":0.0003996,"MEAN_MOTION_DDOT":0},{"OBJECT_NAME":"STARLINK-32494","OBJECT_ID":"2024-216X","EPOCH":"2026-03-23T13:10:27.850944","MEAN_MOTION":15.27616486,"ECCENTRICITY":0.0001339,"INCLINATION":43.0013,"RA_OF_ASC_NODE":185.1102,"ARG_OF_PERICENTER":268.6934,"MEAN_ANOMALY":91.3765,"EPHEMERIS_TYPE":0,"CLASSIFICATION_TYPE":"U","NORAD_CAT_ID":62053,"ELEMENT_SET_NO":999,"REV_AT_EPOCH":7591,"BSTAR":0.00096421,"MEAN_MOTION_DOT":0.00026396,"MEAN_MOTION_DDOT":0},{"OBJECT_NAME":"STARLINK-32408","OBJECT_ID":"2024-216Y","EPOCH":"2026-03-23T12:57:02.663424","MEAN_MOTION":15.27618124,"ECCENTRICITY":0.0001711,"INCLINATION":42.9988,"RA_OF_ASC_NODE":178.1166,"ARG_OF_PERICENTER":115.8193,"MEAN_ANOMALY":244.2836,"EPHEMERIS_TYPE":0,"CLASSIFICATION_TYPE":"U","NORAD_CAT_ID":62054,"ELEMENT_SET_NO":999,"REV_AT_EPOCH":7600,"BSTAR":0.00082788,"MEAN_MOTION_DOT":0.00022616,"MEAN_MOTION_DDOT":0},{"OBJECT_NAME":"STARLINK-32571","OBJECT_ID":"2024-216Z","EPOCH":"2026-03-23T13:31:59.064384","MEAN_MOTION":15.27633472,"ECCENTRICITY":0.0001343,"INCLINATION":43.0014,"RA_OF_ASC_NODE":177.4384,"ARG_OF_PERICENTER":280.4765,"MEAN_ANOMALY":79.5935,"EPHEMERIS_TYPE":0,"CLASSIFICATION_TYPE":"U","NORAD_CAT_ID":62055,"ELEMENT_SET_NO":999,"REV_AT_EPOCH":7610,"BSTAR":0.0012108,"MEAN_MOTION_DOT":0.00033261,"MEAN_MOTION_DDOT":0},{"OBJECT_NAME":"STARLINK-11465 [DTC]","OBJECT_ID":"2024-217A","EPOCH":"2026-03-23T11:43:43.965984","MEAN_MOTION":15.69751807,"ECCENTRICITY":0.0001075,"INCLINATION":53.1576,"RA_OF_ASC_NODE":3.0261,"ARG_OF_PERICENTER":64.829,"MEAN_ANOMALY":295.2839,"EPHEMERIS_TYPE":0,"CLASSIFICATION_TYPE":"U","NORAD_CAT_ID":62057,"ELEMENT_SET_NO":999,"REV_AT_EPOCH":7734,"BSTAR":0.0015327,"MEAN_MOTION_DOT":0.00189736,"MEAN_MOTION_DDOT":0},{"OBJECT_NAME":"STARLINK-11426 [DTC]","OBJECT_ID":"2024-217B","EPOCH":"2026-03-23T03:58:15.188448","MEAN_MOTION":15.69842732,"ECCENTRICITY":0.00014816,"INCLINATION":53.1569,"RA_OF_ASC_NODE":4.5629,"ARG_OF_PERICENTER":43.266,"MEAN_ANOMALY":316.8474,"EPHEMERIS_TYPE":0,"CLASSIFICATION_TYPE":"U","NORAD_CAT_ID":62058,"ELEMENT_SET_NO":999,"REV_AT_EPOCH":7723,"BSTAR":0.0018591039,"MEAN_MOTION_DOT":0.00232334,"MEAN_MOTION_DDOT":0},{"OBJECT_NAME":"STARLINK-11454 [DTC]","OBJECT_ID":"2024-217C","EPOCH":"2026-03-23T04:47:41.692704","MEAN_MOTION":15.69856246,"ECCENTRICITY":0.00010106,"INCLINATION":53.157,"RA_OF_ASC_NODE":4.7893,"ARG_OF_PERICENTER":94.1914,"MEAN_ANOMALY":265.922,"EPHEMERIS_TYPE":0,"CLASSIFICATION_TYPE":"U","NORAD_CAT_ID":62059,"ELEMENT_SET_NO":999,"REV_AT_EPOCH":7729,"BSTAR":0.002075752,"MEAN_MOTION_DOT":0.00260519,"MEAN_MOTION_DDOT":0},{"OBJECT_NAME":"STARLINK-11473 [DTC]","OBJECT_ID":"2024-217D","EPOCH":"2026-03-23T06:33:29.409120","MEAN_MOTION":15.69879122,"ECCENTRICITY":0.0001067,"INCLINATION":53.1573,"RA_OF_ASC_NODE":4.5408,"ARG_OF_PERICENTER":107.7078,"MEAN_ANOMALY":252.4056,"EPHEMERIS_TYPE":0,"CLASSIFICATION_TYPE":"U","NORAD_CAT_ID":62060,"ELEMENT_SET_NO":999,"REV_AT_EPOCH":7730,"BSTAR":0.001735,"MEAN_MOTION_DOT":0.00216697,"MEAN_MOTION_DDOT":0},{"OBJECT_NAME":"STARLINK-11429 [DTC]","OBJECT_ID":"2024-217E","EPOCH":"2026-03-23T04:40:37.986240","MEAN_MOTION":15.69853691,"ECCENTRICITY":0.00012369,"INCLINATION":53.1575,"RA_OF_ASC_NODE":4.7563,"ARG_OF_PERICENTER":59.1604,"MEAN_ANOMALY":300.9535,"EPHEMERIS_TYPE":0,"CLASSIFICATION_TYPE":"U","NORAD_CAT_ID":62061,"ELEMENT_SET_NO":999,"REV_AT_EPOCH":7729,"BSTAR":0.0020726951,"MEAN_MOTION_DOT":0.00260092,"MEAN_MOTION_DDOT":0},{"OBJECT_NAME":"STARLINK-11470 [DTC]","OBJECT_ID":"2024-217F","EPOCH":"2026-03-23T12:11:59.798400","MEAN_MOTION":15.69748761,"ECCENTRICITY":0.0002554,"INCLINATION":53.1571,"RA_OF_ASC_NODE":3.1514,"ARG_OF_PERICENTER":81.1085,"MEAN_ANOMALY":279.0222,"EPHEMERIS_TYPE":0,"CLASSIFICATION_TYPE":"U","NORAD_CAT_ID":62062,"ELEMENT_SET_NO":999,"REV_AT_EPOCH":7728,"BSTAR":0.001484,"MEAN_MOTION_DOT":0.00183537,"MEAN_MOTION_DDOT":0}]
