STARLINK-32598          
1 62046U 24216Q   26082.56773316  .00026567  00000+0  97043-3 0  9990
2 62046  43.0014 177.4700 0000808 222.0104 138.0685 15.27616046 76007
STARLINK-32630          
1 62047U 24216R   26082.56305933  .00044000  00000+0  15939-2 0  9992
2 62047  42.9971 185.2128 0000742 295.5392  64.5383 15.27683983 75911
STARLINK-32599          
1 62048U 24216S   26082.56691592  .00020303  00000+0  74466-3 0  9993
2 62048  43.0011 185.2429 0001362 238.8547 121.2171 15.27607676 75915
STARLINK-32473          
1 62049U 24216T   26081.56268242  .00023101  00000+0  84722-3 0  9990
2 62049  43.0017 183.6855 0000333 194.5925 165.4917 15.27547627 74682
STARLINK-32492          
1 62050U 24216U   26082.01814102  .00034502  00000+0  12569-2 0  9991
2 62050  43.0015 188.0035 0000864 258.7723 101.3032 15.27594888 75835
STARLINK-32496          
1 62051U 24216V   26081.98871978  .00031983  00000+0  11667-2 0  9999
2 62051  43.0009 188.6422 0001392 259.9687 100.1007 15.27580441 75822
STARLINK-32495          
1 62052U 24216W   26082.00013211  .00039960  00000+0  14535-2 0  9992
2 62052  42.9998 187.8718 0001791 271.9147  88.1500 15.27585379 75834
STARLINK-32494          
1 62053U 24216X   26082.54893346  .00026396  00000+0  96421-3 0  9991
2 62053  43.0013 185.1102 0001339 268.6934  91.3765 15.27616486 75910
STARLINK-32408          
1 62054U 24216Y   26082.53961416  .00022616  00000+0  82788-3 0  9997
2 62054  42.9988 178.1166 0001711 115.8193 244.2836 15.27618124 76006
STARLINK-32571          
1 62055U 24216Z   26082.56387806  .00033261  00000+0  12108-2 0  9992
2 62055  43.0014 177.4384 0001343 280.4765  79.5935 15.27633472 76101
STARLINK-11465 [DTC]    
1 62057U 24217A   26082.48870331  .00189736  00000+0  15327-2 0  9991
2 62057  53.1576   3.0261 0001075  64.8290 295.2839 15.69751807 77341
STARLINK-11426 [DTC]    
1 62058U 24217B   26082.16545357  .00232334  00000+0  18591-2 0  9993
2 62058  53.1569   4.5629 0001481  43.2660 316.8474 15.69842732 77232
STARLINK-11454 [DTC]    
1 62059U 24217C   26082.19978811  .00260519  00000+0  20758-2 0  9996
2 62059  53.1570   4.7893 0001010  94.1914 265.9220 15.69856246 77299
STARLINK-11473 [DTC]    
1 62060U 24217D   26082.27325705  .00216697  00000+0  17350-2 0  9997
2 62060  53.1573   4.5408 0001067 107.7078 252.4056 15.69879122 77306
STARLINK-11429 [DTC]    
1 62061U 24217E   26082.19488410  .00260092  00000+0  20727-2 0  9992
2 62061  53.1575   4.7563 0001236  59.1604 300.9535 15.69853691 77298
STARLINK-11470 [DTC]    
1 62062U 24217F   26082.50833100  .00183537  00000+0  14840-2 0  9995
2 62062  53.1571   3.1514 0002554  81.1085 279.0222 15.69748761 77285
